COMMENT,ORIGINATOR,NORAD_CAT_ID,OBJECT_NAME,OBJECT_TYPE,CLASSIFICATION_TYPE,INTLDES,EPOCH,EPOCH_MICROSECONDS,MEAN_MOTION,ECCENTRICITY,INCLINATION,RA_OF_ASC_NODE,ARG_OF_PERICENTER,MEAN_ANOMALY,EPHEMERIS_TYPE,ELEMENT_SET_NO,REV_AT_EPOCH,BSTAR,MEAN_MOTION_DOT,MEAN_MOTION_DDOT,FILE,TLE_LINE0,TLE_LINE1,TLE_LINE2,OBJECT_ID,OBJECT_NUMBER,SEMIMAJOR_AXIS,PERIOD,APOGEE,PERIGEE,DECAYED,date
GENERATED VIA SPACETRACK.ORG API,18 SPCS,48896,SPACEBEE-105,PAYLOAD,U,21059T,2023/1/11 7:59,506400,15.21049378,0.0008686,97.5765,145.7921,92.0897,268.1333,0,999,8546,0.0011071,0.00024599,0,3740054,0 SPACEBEE-105,1 48896U 21059T   23011.33264475  .00024599  00000-0  11071-2 0  9994,2 48896  97.5765 145.7921 0008686  92.0897 268.1333 15.21049378 85467,2021-059T,48896,6880.811,94.671,508.653,496.699,0,2023/1/24
GENERATED VIA SPACETRACK.ORG API,18 SPCS,48896,SPACEBEE-105,PAYLOAD,U,21059T,2023/1/11 19:02,541376,15.21073553,0.0008671,97.5765,146.255,90.8412,269.3817,0,999,8553,0.001135,0.00025241,0,3740203,0 SPACEBEE-105,1 48896U 21059T   23011.79314284  .00025241  00000-0  11350-2 0  9993,2 48896  97.5765 146.2550 0008671  90.8412 269.3817 15.21073553 85534,2021-059T,48896,6880.738,94.67,508.569,496.637,0,2023/1/25
GENERATED VIA SPACETRACK.ORG API,18 SPCS,48896,SPACEBEE-105,PAYLOAD,U,21059T,2023/1/11 19:02,541376,15.21073553,0.0008671,97.5765,146.255,90.8412,269.3817,0,999,8553,0.001135,0.00025241,0,3740419,0 SPACEBEE-105,1 48896U 21059T   23011.79314284  .00025241  00000-0  11350-2 0  9993,2 48896  97.5765 146.2550 0008671  90.8412 269.3817 15.21073553 85534,2021-059T,48896,6880.738,94.67,508.569,496.637,0,2023/1/26
GENERATED VIA SPACETRACK.ORG API,18 SPCS,48896,SPACEBEE-105,PAYLOAD,U,21059T,2023/1/12 21:52,483552,15.21133939,0.000868,97.5764,147.3799,86.8982,273.3247,0,999,8570,0.0011332,0.00025245,0,3741930,0 SPACEBEE-105,1 48896U 21059T   23012.91146393  .00025245  00000-0  11332-2 0  9996,2 48896  97.5764 147.3799 0008680  86.8982 273.3247 15.21133939 85703,2021-059T,48896,6880.556,94.666,508.393,496.449,0,2023/1/27
GENERATED VIA SPACETRACK.ORG API,18 SPCS,48896,SPACEBEE-105,PAYLOAD,U,21059T,2023/1/12 21:52,483552,15.21133939,0.000868,97.5764,147.3799,86.8982,273.3247,0,999,8570,0.0011332,0.00025245,0,3742227,0 SPACEBEE-105,1 48896U 21059T   23012.91146393  .00025245  00000-0  11332-2 0  9996,2 48896  97.5764 147.3799 0008680  86.8982 273.3247 15.21133939 85703,2021-059T,48896,6880.556,94.666,508.393,496.449,0,2023/1/28
GENERATED VIA SPACETRACK.ORG API,18 SPCS,48896,SPACEBEE-105,PAYLOAD,U,21059T,2023/1/13 8:55,245344,15.21161635,0.0008728,97.5764,147.8433,84.6711,275.5519,0,999,8577,0.0012203,0.00027221,0,3743417,0 SPACEBEE-105,1 48896U 21059T   23013.37193571  .00027221  00000-0  12203-2 0  9991,2 48896  97.5764 147.8433 0008728  84.6711 275.5519 15.21161635 85779,2021-059T,48896,6880.473,94.664,508.343,496.332,0,2023/1/29
GENERATED VIA SPACETRACK.ORG API,18 SPCS,48896,SPACEBEE-105,PAYLOAD,U,21059T,2023/1/14 3:52,20192,15.2120894,0.0008768,97.5762,148.6373,82.4595,277.7636,0,999,8589,0.0013422,0.0003,0,3743958,0 SPACEBEE-105,1 48896U 21059T   23014.16129653  .00030000  00000-0  13422-2 0  9992,2 48896  97.5762 148.6373 0008768  82.4595 277.7636 15.21208940 85897,2021-059T,48896,6880.33,94.662,508.228,496.162,0,2023/1/30
GENERATED VIA SPACETRACK.ORG API,18 SPCS,48896,SPACEBEE-105,PAYLOAD,U,21059T,2023/1/15 8:17,967872,15.21287767,0.0008717,97.5757,149.8288,78.3664,281.8549,0,999,8607,0.0015468,0.00034685,0,3746204,0 SPACEBEE-105,1 48896U 21059T   23015.34528898  .00034685  00000-0  15468-2 0  9992,2 48896  97.5757 149.8288 0008717  78.3664 281.8549 15.21287767 86078,2021-059T,48896,6880.092,94.657,507.955,495.96,0,2023/1/31
GENERATED VIA SPACETRACK.ORG API,18 SPCS,48896,SPACEBEE-105,PAYLOAD,U,21059T,2023/1/15 14:36,857984,15.21304749,0.0008697,97.5756,150.0933,77.6701,282.5508,0,999,8611,0.0014403,0.00032298,0,3747091,0 SPACEBEE-105,1 48896U 21059T   23015.60838956  .00032298  00000-0  14403-2 0  9996,2 48896  97.5756 150.0933 0008697  77.6701 282.5508 15.21304749 86117,2021-059T,48896,6880.041,94.656,507.89,495.922,0,2023/2/1
GENERATED VIA SPACETRACK.ORG API,18 SPCS,48896,SPACEBEE-105,PAYLOAD,U,21059T,2023/1/16 7:57,21760,15.21367337,0.0008655,97.5752,150.8214,74.9232,285.2961,0,999,8622,0.0018138,0.00040813,0,3748911,0 SPACEBEE-105,1 48896U 21059T   23016.33189840  .00040813  00000-0  18138-2 0  9999,2 48896  97.5752 150.8214 0008655  74.9232 285.2961 15.21367337 86223,2021-059T,48896,6879.852,94.652,507.672,495.763,0,2023/2/2
GENERATED VIA SPACETRACK.ORG API,18 SPCS,48896,SPACEBEE-105,PAYLOAD,U,21059T,2023/1/16 7:57,21760,15.21367337,0.0008655,97.5752,150.8214,74.9232,285.2961,0,999,8622,0.0018138,0.00040813,0,3749606,0 SPACEBEE-105,1 48896U 21059T   23016.33189840  .00040813  00000-0  18138-2 0  9999,2 48896  97.5752 150.8214 0008655  74.9232 285.2961 15.21367337 86223,2021-059T,48896,6879.852,94.652,507.672,495.763,0,2023/2/3
GENERATED VIA SPACETRACK.ORG API,18 SPCS,48896,SPACEBEE-105,PAYLOAD,U,21059T,2023/1/16 22:10,955712,15.21402772,0.0008621,97.5752,151.4172,72.8769,287.341,0,999,8631,0.0014222,0.00031981,0,3751409,0 SPACEBEE-105,1 48896U 21059T   23016.92384208  .00031981  00000-0  14222-2 0  9995,2 48896  97.5752 151.4172 0008621  72.8769 287.3410 15.21402772 86313,2021-059T,48896,6879.745,94.649,507.542,495.679,0,2023/2/4
GENERATED VIA SPACETRACK.ORG API,18 SPCS,48896,SPACEBEE-105,PAYLOAD,U,21059T,2023/1/17 7:38,242080,15.21424181,0.000859,97.5755,151.8144,71.4224,288.7943,0,999,8637,0.0012685,0.00028521,0,3753023,0 SPACEBEE-105,1 48896U 21059T   23017.31846345  .00028521  00000-0  12685-2 0  9991,2 48896  97.5755 151.8144 0008590  71.4224 288.7943 15.21424181 86375,2021-059T,48896,6879.681,94.648,507.456,495.636,0,2023/2/5
GENERATED VIA SPACETRACK.ORG API,18 SPCS,48896,SPACEBEE-105,PAYLOAD,U,21059T,2023/1/17 21:50,214752,15.21457287,0.0008641,97.5756,152.4102,69.7785,290.4379,0,999,8646,0.001155,0.00025979,0,3753431,0 SPACEBEE-105,1 48896U 21059T   23017.91038443  .00025979  00000-0  11550-2 0  9993,2 48896  97.5756 152.4102 0008641  69.7785 290.4379 15.21457287 86462,2021-059T,48896,6879.581,94.646,507.391,495.502,0,2023/2/6
GENERATED VIA SPACETRACK.ORG API,18 SPCS,48896,SPACEBEE-105,PAYLOAD,U,21059T,2023/1/18 8:53,461824,15.21492576,0.0008691,97.5757,152.8735,68.3392,291.8768,0,999,8653,0.0015978,0.00036053,0,3753821,0 SPACEBEE-105,1 48896U 21059T   23018.37075766  .00036053  00000-0  15978-2 0  9996,2 48896  97.5757 152.8735 0008691  68.3392 291.8768 15.21492576 86538,2021-059T,48896,6879.475,94.644,507.319,495.361,0,2023/2/7
GENERATED VIA SPACETRACK.ORG API,18 SPCS,48896,SPACEBEE-105,PAYLOAD,U,21059T,2023/1/18 8:53,461824,15.21492576,0.0008691,97.5757,152.8735,68.3392,291.8768,0,999,8653,0.0015978,0.00036053,0,3753951,0 SPACEBEE-105,1 48896U 21059T   23018.37075766  .00036053  00000-0  15978-2 0  9996,2 48896  97.5757 152.8735 0008691  68.3392 291.8768 15.21492576 86538,2021-059T,48896,6879.475,94.644,507.319,495.361,0,2023/2/8
GENERATED VIA SPACETRACK.ORG API,18 SPCS,48896,SPACEBEE-105,PAYLOAD,U,21059T,2023/1/18 21:31,77408,15.21524245,0.0008666,97.5759,153.4034,66.0412,294.173,0,999,8661,0.0014434,0.00032577,0,3754254,0 SPACEBEE-105,1 48896U 21059T   23018.89688747  .00032577  00000-0  14434-2 0  9995,2 48896  97.5759 153.4034 0008666  66.0412 294.1730 15.21524245 86612,2021-059T,48896,6879.379,94.642,507.206,495.283,0,2023/2/9
GENERATED VIA SPACETRACK.ORG API,18 SPCS,48896,SPACEBEE-105,PAYLOAD,U,21059T,2023/1/19 6:59,648224,15.2154499,0.0008688,97.5759,153.8007,64.8289,295.3846,0,999,8667,0.0012536,0.00028285,0,3754735,0 SPACEBEE-105,1 48896U 21059T   23019.29147741  .00028285  00000-0  12536-2 0  9996,2 48896  97.5759 153.8007 0008688  64.8289 295.3846 15.21544990 86674,2021-059T,48896,6879.317,94.641,507.159,495.205,0,2023/2/10
GENERATED VIA SPACETRACK.ORG API,18 SPCS,48896,SPACEBEE-105,PAYLOAD,U,21059T,2023/1/19 8:34,690656,15.2155189,0.0008701,97.5759,153.8672,64.5303,295.6831,0,999,8668,0.0014126,0.00031904,0,3754973,0 SPACEBEE-105,1 48896U 21059T   23019.35724179  .00031904  00000-0  14126-2 0  9998,2 48896  97.5759 153.8672 0008701  64.5303 295.6831 15.21551890 86687,2021-059T,48896,6879.296,94.64,507.147,495.175,0,2023/2/11
GENERATED VIA SPACETRACK.ORG API,18 SPCS,48896,SPACEBEE-105,PAYLOAD,U,21059T,2023/1/20 8:14,482496,15.21610092,0.0008647,97.5761,154.8601,61.125,299.0852,0,999,8683,0.0012829,0.00029005,0,3755783,0 SPACEBEE-105,1 48896U 21059T   23020.34368614  .00029005  00000-0  12829-2 0  9994,2 48896  97.5761 154.8601 0008647  61.1250 299.0852 15.21610092 86834,2021-059T,48896,6879.121,94.637,506.934,495.037,0,2023/2/12
GENERATED VIA SPACETRACK.ORG API,18 SPCS,48896,SPACEBEE-105,PAYLOAD,U,21059T,2023/1/20 8:14,482496,15.21610092,0.0008647,97.5761,154.8601,61.125,299.0852,0,999,8683,0.0012829,0.00029005,0,3755973,0 SPACEBEE-105,1 48896U 21059T   23020.34368614  .00029005  00000-0  12829-2 0  9994,2 48896  97.5761 154.8601 0008647  61.1250 299.0852 15.21610092 86834,2021-059T,48896,6879.121,94.637,506.934,495.037,0,2023/2/13
GENERATED VIA SPACETRACK.ORG API,18 SPCS,48896,SPACEBEE-105,PAYLOAD,U,21059T,2023/1/22 2:51,835424,15.21723299,0.0008596,97.5766,156.648,54.795,305.4089,0,999,8710,0.0015008,0.0003408,0,3757368,0 SPACEBEE-105,1 48896U 21059T   23022.11918791  .00034080  00000-0  15008-2 0  9999,2 48896  97.5766 156.6480 0008596  54.7950 305.4089 15.21723299 87101,2021-059T,48896,6878.779,94.63,506.557,494.731,0,2023/2/14
GENERATED VIA SPACETRACK.ORG API,18 SPCS,48896,SPACEBEE-105,PAYLOAD,U,21059T,2023/1/23 7:16,325056,15.21798606,0.0008654,97.5769,157.8401,50.833,309.3673,0,999,8728,0.0013947,0.00031726,0,3758687,0 SPACEBEE-105,1 48896U 21059T   23023.30278154  .00031726  00000-0  13947-2 0  9997,2 48896  97.5769 157.8401 0008654  50.8330 309.3673 15.21798606 87289,2021-059T,48896,6878.552,94.625,506.37,494.465,0,2023/2/15
